     2.100          NAVIGATION                              RINEX VERSION / TYPE
fic2rin                                 06/22/2012 00:11:59 PGM / RUN BY / DATE
                                                            END OF HEADER
 6 12  6 22  0  0  0.0  .158073380589D-04 -.397903932026D-11  .000000000000D+00
     .115000000000D+03 -.612500000000D+02  .479412826611D-08 -.223907007668D+01
    -.313483178616D-05  .737235893030D-02  .109951943159D-04  .515369668961D+04
     .432000000000D+06 -.188127160072D-06 -.271311570711D+01  .540167093277D-07
     .938631643421D+00  .157843750000D+03 -.513717699753D+00 -.798676125209D-08
     .203579908492D-09  .100000000000D+01  .169300000000D+04  .000000000000D+00
     .240000000000D+01  .000000000000D+00 -.512227416039D-08  .115000000000D+03
     .424806000000D+06  .400000000000D+01
 7 12  6 22  0  0  0.0  .929548405111D-04  .375166564481D-11  .000000000000D+00
     .950000000000D+02  .768750000000D+02  .433160900033D-08  .638751289161D+00
     .403635203838D-05  .553073652554D-02  .246055424213D-05  .515360329247D+04
     .432000000000D+06  .115483999252D-06  .154934481291D+01  .121071934700D-06
     .975607962879D+00  .340187500000D+03 -.302689598042D+01 -.822998566908D-08
     .315013121561D-09  .100000000000D+01  .169300000000D+04  .000000000000D+00
     .240000000000D+01  .000000000000D+00 -.107102096081D-07  .950000000000D+02
     .424806000000D+06  .400000000000D+01
 8 12  6 22  0  0  0.0  .153901055455D-05  .113686837722D-12  .000000000000D+00
     .340000000000D+02  .627812500000D+02  .393516391537D-08 -.650555676084D-01
     .340119004250D-05  .123490889091D-01  .225007534027D-05  .515367134857D+04
     .432000000000D+06  .188127160072D-06  .163326747260D+01  .298023223877D-07
     .997801509775D+00  .354000000000D+03 -.296552360459D+01 -.820355599675D-08
     .334656796942D-09  .100000000000D+01  .169300000000D+04  .000000000000D+00
     .240000000000D+01  .000000000000D+00 -.372529029846D-08  .340000000000D+02
     .424806000000D+06  .400000000000D+01
 9 12  6 22  0  0  0.0  .166685786098D-03  .261479726760D-11  .000000000000D+00
     .920000000000D+02  .833125000000D+02  .416838791580D-08 -.759076958031D-01
     .415742397308D-05  .175404277397D-01  .382587313652D-05  .515361814690D+04
     .432000000000D+06 -.266358256340D-06  .152377710398D+01 -.316649675369D-07
     .984340697284D+00  .320750000000D+03  .162731788718D+01 -.840892169391D-08
     .384301721995D-09  .100000000000D+01  .169300000000D+04  .000000000000D+00
     .340000000000D+01  .000000000000D+00 -.558793544769D-08  .920000000000D+02
     .424806000000D+06  .400000000000D+01
10 12  6 22  0  0  0.0 -.422382727265D-04 -.125055521494D-11  .000000000000D+00
     .770000000000D+02 -.206250000000D+02  .489556106263D-08 -.192882693593D+01
    -.107474625111D-05  .113210570998D-01  .704452395439D-05  .515369972610D+04
     .432000000000D+06  .931322574615D-07 -.540430436125D+00 -.126659870148D-06
     .945704221817D+00  .235000000000D+03  .751627631416D+00 -.799747598412D-08
    -.471448209139D-09  .100000000000D+01  .169300000000D+04  .000000000000D+00
     .340000000000D+01  .000000000000D+00 -.232830643654D-08  .770000000000D+02
     .424806000000D+06  .400000000000D+01
11 12  6 22  0  0  0.0 -.274077057838D-03 -.397903932026D-11  .000000000000D+00
     .870000000000D+02  .373125000000D+02  .655563021117D-08  .728103921868D+00
     .217929482460D-05  .130063284887D-01  .776909291744D-05  .515367428970D+04
     .432000000000D+06 -.162050127983D-06 -.188331463139D+01  .102445483208D-06
     .887825057363D+00  .192375000000D+03  .105385623691D+01 -.915109546557D-08
     .319299014371D-09  .100000000000D+01  .169300000000D+04  .000000000000D+00
     .240000000000D+01  .000000000000D+00 -.116415321827D-07  .870000000000D+02
     .424806000000D+06  .400000000000D+01
12 12  6 22  0  0  0.0  .758268870413D-04  .204636307899D-11  .000000000000D+00
     .250000000000D+02 -.100375000000D+03  .436696761602D-08  .307766650116D+00
    -.516325235367D-05  .410561100580D-02  .383146107197D-05  .515377633095D+04
     .432000000000D+06  .819563865662D-07  .260628769432D+01  .428408384323D-07
     .980282395759D+00  .319906250000D+03  .858069566956D-01 -.818034074403D-08
    -.197151069276D-09  .100000000000D+01  .169300000000D+04  .000000000000D+00
     .240000000000D+01  .000000000000D+00 -.121071934700D-07  .250000000000D+02
     .424806000000D+06  .400000000000D+01
13 12  6 22  0  0  0.0  .199482776225D-03 -.250111042988D-11  .000000000000D+00
     .700000000000D+02  .959375000000D+02  .353943314588D-08  .286419595605D+01
     .502727925777D-05  .498490245081D-02  .102724879980D-04  .515365942383D+04
     .432000000000D+06  .931322574615D-08  .579067208565D+00  .931322574615D-08
     .985802377735D+00  .195000000000D+03  .202612013729D+01 -.739959393707D-08
    -.753602819154D-10  .100000000000D+01  .169300000000D+04  .000000000000D+00
     .240000000000D+01  .000000000000D+00 -.111758708954D-07  .700000000000D+02
     .424806000000D+06  .400000000000D+01
14 12  6 22  0  0  0.0  .205629039556D-03  .795807864051D-12  .000000000000D+00
     .500000000000D+02  .753125000000D+02  .361193616593D-08  .308190261160D+01
     .394508242607D-05  .643723865505D-02  .109691172838D-04  .515360725594D+04
     .432000000000D+06  .167638063431D-07  .552202660794D+00  .000000000000D+00
     .978640084425D+00  .176218750000D+03 -.207253060478D+01 -.741459456191D-08
    -.121433629627D-10  .100000000000D+01  .169300000000D+04  .000000000000D+00
     .240000000000D+01  .000000000000D+00 -.884756445885D-08  .500000000000D+02
     .424806000000D+06  .400000000000D+01
15 12  6 22  0  0  0.0 -.918870791793D-04 -.227373675443D-12  .000000000000D+00
     .750000000000D+02  .760312500000D+02  .448625829924D-08  .260313580221D+01
     .393576920033D-05  .440512795467D-02  .112652778625D-04  .515358379555D+04
     .432000000000D+06 -.502914190292D-07  .463603288995D+00 -.558793544769D-08
     .945477146210D+00  .153156250000D+03  .516637726664D-01 -.792354433314D-08
    -.198936857947D-09  .100000000000D+01  .169300000000D+04  .000000000000D+00
     .240000000000D+01  .000000000000D+00 -.102445483208D-07  .750000000000D+02
     .424806000000D+06  .400000000000D+01
16 12  6 22  0  0  0.0 -.238904263824D-03 -.113686837722D-11  .000000000000D+00
     .330000000000D+02 -.103562500000D+03  .420767526656D-08 -.196439381867D+01
    -.560842454433D-05  .663351267576D-02  .457651913166D-05  .515369741631D+04
     .432000000000D+06 -.167638063431D-07  .262445415836D+01 -.189989805222D-06
     .981117730760D+00  .304000000000D+03  .371219705076D-02 -.805747848346D-08
    -.123576576032D-09  .100000000000D+01  .169300000000D+04  .000000000000D+00
     .240000000000D+01  .000000000000D+00 -.977888703346D-08  .330000000000D+02
     .424806000000D+06  .400000000000D+01
17 12  6 22  0  0  0.0  .119281001389D-03 -.284217094304D-11  .000000000000D+00
     .104000000000D+03 -.575312500000D+02  .422374736460D-08 -.290821540536D+01
    -.293925404549D-05  .737975246739D-02  .118352472782D-04  .515370805931D+04
     .432000000000D+06  .372529029846D-07 -.261903023159D+01 -.163912773132D-06
     .963374711281D+00  .148625000000D+03 -.229403298270D+01 -.766853371092D-08
     .246081678861D-09  .100000000000D+01  .169300000000D+04  .000000000000D+00
     .340000000000D+01  .000000000000D+00 -.107102096081D-07  .104000000000D+03
     .424806000000D+06  .400000000000D+01
18 12  6 22  0  0  0.0  .201663002372D-03  .181898940355D-11  .000000000000D+00
     .860000000000D+02 -.215937500000D+02  .539165315542D-08 -.143467638284D+01
    -.112131237984D-05  .134789631702D-01  .628829002380D-05  .515369502258D+04
     .432000000000D+06  .389292836189D-06 -.552004903529D+00  .707805156708D-07
     .929507404343D+00  .241406250000D+03 -.216930254064D+01 -.833713298934D-08
    -.558951854017D-09  .100000000000D+01  .169300000000D+04  .000000000000D+00
     .240000000000D+01  .000000000000D+00 -.107102096081D-07  .860000000000D+02
     .424806000000D+06  .400000000000D+01
20 12  6 22  0  0  0.0  .640843063593D-04  .341060513165D-12  .000000000000D+00
     .110000000000D+03 -.244062500000D+02  .545665586305D-08 -.106258644778D+01
    -.132247805595D-05  .492372608278D-02  .641681253910D-05  .515367770767D+04
     .432000000000D+06 -.558793544769D-07 -.605707793818D+00  .141561031342D-06
     .929943813287D+00  .238156250000D+03  .129052064743D+01 -.850249702027D-08
    -.582524264474D-09  .100000000000D+01  .169300000000D+04  .000000000000D+00
     .340000000000D+01  .000000000000D+00 -.791624188423D-08  .110000000000D+03
     .424806000000D+06  .400000000000D+01
21 12  6 22  0  0  0.0 -.231743324548D-03 -.238742359215D-11  .000000000000D+00
     .790000000000D+02  .275312500000D+02  .566487882208D-08 -.343742427235D+00
     .156089663506D-05  .192282913486D-01  .626780092716D-05  .515359261322D+04
     .432000000000D+06 -.502914190292D-07 -.160295032552D+01  .223517417908D-06
     .930924533086D+00  .242156250000D+03 -.224019942603D+01 -.884965433791D-08
     .267868300647D-09  .100000000000D+01  .169300000000D+04  .000000000000D+00
     .240000000000D+01  .000000000000D+00 -.111758708954D-07  .790000000000D+02
     .424806000000D+06  .400000000000D+01
22 12  6 22  0  0  0.0  .144749879837D-03  .113686837722D-12  .000000000000D+00
     .650000000000D+02 -.279375000000D+02  .536200906349D-08 -.223850062850D+01
    -.149384140968D-05  .621652347036D-02  .646896660328D-05  .515367041969D+04
     .432000000000D+06  .596046447754D-07 -.548680871309D+00 -.987201929092D-07
     .927231634851D+00  .237750000000D+03 -.201529902296D+01 -.827498754359D-08
    -.511092717635D-09  .100000000000D+01  .169300000000D+04  .000000000000D+00
     .340000000000D+01  .000000000000D+00 -.167638063431D-07  .650000000000D+02
     .424806000000D+06  .400000000000D+01
